[Satellite]
VERSION=1.1
NAME=HORIZONS-2
NICKNAME=HORIZONS-2
TLE1=1 32388U 07063B   15054.57945611 -.00000208  00000-0  10000-3 0  9998
TLE2=2 32388   0.0338 264.6959 0002693  71.4176 110.4523  1.00271736 26457
